AETHER-2                
1 58299U 23174AV  26068.71793741  .00008341  00000+0  26166-3 0  9990
2 58299  97.3931 151.9008 0008630 139.5247 220.6639 15.33264165129982
STARLINK-31379          
1 58984U 24031V   26068.84947809  .00000298  00000+0  22182-4 0  9992
2 58984  53.1597 296.2331 0001122  89.7443 270.3686 15.30194472116537
